{
    "CCSDS_OMM_VERS": "3.0",
    "COMMENT": "GENERATED VIA SPACE-TRACK.ORG API",
    "CREATION_DATE": "2025-11-24T07:26:19",
    "ORIGINATOR": "18 SPCS",
    "OBJECT_NAME": "BEIDOU 11",
    "OBJECT_ID": "2012-008A",
    "CENTER_NAME": "EARTH",
    "REF_FRAME": "TEME",
    "TIME_SYSTEM": "UTC",
    "MEAN_ELEMENT_THEORY": "SGP4",
    "EPOCH": "2025-11-24T04:01:26.336352",
    "MEAN_MOTION": "1.00270627",
    "ECCENTRICITY": "0.00115690",
    "INCLINATION": "3.0602",
    "RA_OF_ASC_NODE": "70.7658",
    "ARG_OF_PERICENTER": "225.1858",
    "MEAN_ANOMALY": "246.5111",
    "EPHEMERIS_TYPE": "0",
    "CLASSIFICATION_TYPE": "U",
    "NORAD_CAT_ID": "38091",
    "ELEMENT_SET_NO": "999",
    "REV_AT_EPOCH": "5031",
    "BSTAR": "0.00000000000000",
    "MEAN_MOTION_DOT": "0.00000077",
    "MEAN_MOTION_DDOT": "0.0000000000000",
    "SEMIMAJOR_AXIS": "42165.057",
    "PERIOD": "1436.113",
    "APOAPSIS": "35835.702",
    "PERIAPSIS": "35738.141",
    "OBJECT_TYPE": "PAYLOAD",
    "RCS_SIZE": "LARGE",
    "COUNTRY_CODE": "PRC",
    "LAUNCH_DATE": "2012-02-24",
    "SITE": "XSC",
    "DECAY_DATE": null,
    "FILE": "4896935",
    "GP_ID": "303365487",
    "TLE_LINE0": "0 BEIDOU 11",
    "TLE_LINE1": "1 38091U 12008A   25328.16766593  .00000077  00000-0  00000+0 0  9998",
    "TLE_LINE2": "2 38091   3.0602  70.7658 0011569 225.1858 246.5111  1.00270627 50314"
}